*******************************************************************************
JPL/HORIZONS                   85 Io (A865 SA)             2023-Sep-04 11:04:18
Rec #:      85 (+COV) Soln.date: 2023-Aug-24_21:21:21   # obs: 7264 (1865-2023)
 
IAU76/J2000 helio. ecliptic osc. elements (au, days, deg., period=Julian yrs):
 
  EPOCH=  2457367.5 ! 2015-Dec-11.00 (TDB)         Residual RMS= .27479
   EC= .1938463640737399   QR= 2.138194952425252   TP= 2457633.8146080473
   OM= 203.1240003861063   W=  123.1694797324532   IN= 11.96127578869989
   A= 2.652341758613411    MA= 299.2348129898703   ADIST= 3.166488564801569
   PER= 4.31969            N= .228170687           ANGMOM= .02748396
   DAN= 2.85552            DDN= 2.30791            L= 326.8719788
   B= 9.9902324            MOID= 1.15288997        TP= 2016-Sep-02.3146080473
 
Asteroid physical parameters (km, seconds, rotational period in hours):
   GM= n.a.                RAD= 77.395             ROTPER= 6.875
   H= 7.98                 G= .150                 B-V= .668
                           ALBEDO= .0666           STYP= B

ASTEROID comments: 
1: soln ref.= JPL#123, OCC=0
2: source=ORB
*******************************************************************************


*******************************************************************************
Ephemeris / API_USER Mon Sep  4 11:04:18 2023 Pasadena, USA      / Horizons
*******************************************************************************
Target body name: 85 Io (A865 SA)                 {source: JPL#123}
Center body name: Solar System Barycenter (0)     {source: DE441}
Center-site name: BODY CENTER
*******************************************************************************
Start time      : A.D. 2023-Aug-12 00:00:00.0000 TDB
Stop  time      : A.D. 2023-Aug-13 00:00:00.0000 TDB
Step-size       : 2880 minutes
*******************************************************************************
Center geodetic : 0.0, 0.0, 0.0                   {E-lon(deg),Lat(deg),Alt(km)}
Center cylindric: 0.0, 0.0, 0.0                   {E-lon(deg),Dxy(km),Dz(km)}
Center radii    : (undefined)
Small perturbers: Yes                             {source: SB441-N16}
Output units    : KM-S
Calendar mode   : Mixed Julian/Gregorian
Output type     : GEOMETRIC cartesian states
Output format   : 2 (position and velocity)
Reference frame : Ecliptic of J2000.0
*******************************************************************************
Initial IAU76/J2000 heliocentric ecliptic osculating elements (au, days, deg.):
  EPOCH=  2457367.5 ! 2015-Dec-11.00 (TDB)         Residual RMS= .27479        
   EC= .1938463640737399   QR= 2.138194952425252   TP= 2457633.8146080473      
   OM= 203.1240003861063   W=  123.1694797324532   IN= 11.96127578869989       
  Equivalent ICRF heliocentric cartesian coordinates (au, au/d):
   X=-1.101247626271974E+00  Y=-2.157049047799655E+00  Z=-5.669140053358299E-01
  VX= 1.078209274611160E-02 VY=-3.173465247930736E-03 VZ= 2.030044905577996E-04
Asteroid physical parameters (km, seconds, rotational period in hours):        
   GM= n.a.                RAD= 77.395             ROTPER= 6.875               
   H= 7.98                 G= .150                 B-V= .668                   
                           ALBEDO= .0666           STYP= B                     
*******************************************************************************
JDTDB
   X     Y     Z
   VX    VY    VZ
*******************************************************************************
$$SOE
2460168.500000000 = A.D. 2023-Aug-12 00:00:00.0000 TDB 
 X =-4.575905832211285E+08 Y = 5.148366592013966E+07 Z =-4.790830340314953E+07
 VX=-3.695593444846124E-01 VY=-1.523804219616127E+01 VZ= 2.936590721508517E+00
$$EOE
*******************************************************************************
 
TIME

  Barycentric Dynamical Time ("TDB" or T_eph) output was requested. This
continuous coordinate time is equivalent to the relativistic proper time
of a clock at rest in a reference frame co-moving with the solar system
barycenter but outside the system's gravity well. It is the independent
variable in the solar system relativistic equations of motion.

  TDB runs at a uniform rate of one SI second per second and is independent
of irregularities in Earth's rotation.
 
CALENDAR SYSTEM

  Mixed calendar mode was active such that calendar dates after AD 1582-Oct-15
(if any) are in the modern Gregorian system. Dates prior to 1582-Oct-5 (if any)
are in the Julian calendar system, which is automatically extended for dates
prior to its adoption on 45-Jan-1 BC.  The Julian calendar is useful for
matching historical dates. The Gregorian calendar more accurately corresponds
to the Earth's orbital motion and seasons. A "Gregorian-only" calendar mode is
available if such physical events are the primary interest.

REFERENCE FRAME AND COORDINATES

  Ecliptic at the standard reference epoch

    Reference epoch: J2000.0
    X-Y plane: adopted Earth orbital plane at the reference epoch
               Note: IAU76 obliquity of 84381.448 arcseconds wrt ICRF X-Y plane
    X-axis   : ICRF
    Z-axis   : perpendicular to the X-Y plane in the directional (+ or -) sense
               of Earth's north pole at the reference epoch.

  Symbol meaning:

    JDTDB    Julian Day Number, Barycentric Dynamical Time
      X      X-component of position vector (km)
      Y      Y-component of position vector (km)
      Z      Z-component of position vector (km)
      VX     X-component of velocity vector (km/sec)                           
      VY     Y-component of velocity vector (km/sec)                           
      VZ     Z-component of velocity vector (km/sec)                           

ABERRATIONS AND CORRECTIONS

 Geometric state vectors have NO corrections or aberrations applied.

Computations by ...

    Solar System Dynamics Group, Horizons On-Line Ephemeris System
    4800 Oak Grove Drive, Jet Propulsion Laboratory
    Pasadena, CA  91109   USA

    General site: https://ssd.jpl.nasa.gov/
    Mailing list: https://ssd.jpl.nasa.gov/email_list.html
    System news : https://ssd.jpl.nasa.gov/horizons/news.html
    User Guide  : https://ssd.jpl.nasa.gov/horizons/manual.html
    Connect     : browser        https://ssd.jpl.nasa.gov/horizons/app.html#/x
                  API            https://ssd-api.jpl.nasa.gov/doc/horizons.html
                  command-line   telnet ssd.jpl.nasa.gov 6775
                  e-mail/batch   https://ssd.jpl.nasa.gov/ftp/ssd/hrzn_batch.txt
                  scripts        https://ssd.jpl.nasa.gov/ftp/ssd/SCRIPTS
    Author      : Jon.D.Giorgini@jpl.nasa.gov
*******************************************************************************
